[{"OBJECT_NAME":"STARLINK-4177","OBJECT_ID":"2022-076AD","EPOCH":"2026-03-09T08:42:24.782112","MEAN_MOTION":15.08842063,"ECCENTRICITY":0.00015946,"INCLINATION":53.2182,"RA_OF_ASC_NODE":85.5848,"ARG_OF_PERICENTER":104.1045,"MEAN_ANOMALY":256.0125,"EPHEMERIS_TYPE":0,"CLASSIFICATION_TYPE":"U","NORAD_CAT_ID":53013,"ELEMENT_SET_NO":999,"REV_AT_EPOCH":20293,"BSTAR":0.00012077322,"MEAN_MOTION_DOT":1.635e-5,"MEAN_MOTION_DDOT":0},{"OBJECT_NAME":"COSMOS 886 DEB","OBJECT_ID":"1976-126BD","EPOCH":"2026-03-09T07:30:27.749952","MEAN_MOTION":13.37839737,"ECCENTRICITY":0.07700073,"INCLINATION":65.7949,"RA_OF_ASC_NODE":38.8664,"ARG_OF_PERICENTER":118.7434,"MEAN_ANOMALY":249.3183,"EPHEMERIS_TYPE":0,"CLASSIFICATION_TYPE":"U","NORAD_CAT_ID":9963,"ELEMENT_SET_NO":999,"REV_AT_EPOCH":34061,"BSTAR":0.00061461949,"MEAN_MOTION_DOT":1.837e-5,"MEAN_MOTION_DDOT":0}]
